STARLINK-30494          
1 57970U 23151G   26068.36049035 -.00001272  00000+0 -35691-4 0  9993
2 57970  43.0027 192.4566 0001155 241.5536 118.5200 15.28417441137406
STARLINK-33903          
1 63828U 25092AA  26068.29064626  .00027937  00000+0  10206-2 0  9990
2 63828  43.0062 174.7963 0001760 272.7263  87.3387 15.27590184 48600
